{"type":"FeatureCollection","features":[{"type":"Feature","properties":{"_gpxType":"trk","name":"Gelaci - Motsameda","coordinateProperties":{}},"geometry":{"type":"LineString","coordinates":[[42.769433,42.295138,403.22],[42.76938,42.295093,403.19],[42.769234,42.294918,404.48],[42.769167,42.294801,405.19],[42.769144,42.294731,405.81],[42.769049,42.294648,405.01],[42.768979,42.294552,404.96],[42.768862,42.294276,406.62],[42.768808,42.294148,407.34],[42.768766,42.294077,407.94],[42.768723,42.294027,408.33],[42.768599,42.293934,408.21],[42.768467,42.293861,407.2],[42.768377,42.293822,406.47],[42.76823,42.293684,406.95],[42.768133,42.293549,413.44],[42.767973,42.293387,419.92],[42.767858,42.293245,426.76],[42.767673,42.293048,434.99],[42.767455,42.292927,436.58],[42.767238,42.29279,437.85],[42.767107,42.292673,439.58],[42.76705,42.292501,440.4],[42.767058,42.292382,439.57],[42.767039,42.292311,438.24],[42.766984,42.292202,435.15],[42.767039,42.292311,438.24],[42.767124,42.292223,437.3],[42.767299,42.292111,436.28],[42.767513,42.292051,435.86],[42.767761,42.292114,440.34],[42.768057,42.292154,444.86],[42.768139,42.292186,447.12],[42.768123,42.292215,447.58],[42.76806,42.292323,449.3],[42.768072,42.292381,450.34],[42.768174,42.292471,453.38],[42.768245,42.2926,456.8],[42.768537,42.292761,461.35],[42.769155,42.292926,468.3],[42.769502,42.292943,471.76],[42.770046,42.293077,475.12],[42.77006,42.293105,475.5],[42.770555,42.294073,488.53],[42.770682,42.294322,489.62],[42.77104,42.29468,493.02],[42.7713,42.294865,492.17],[42.771322,42.294864,492.84],[42.7713,42.294865,492.17],[42.77104,42.29468,493.02],[42.770682,42.294322,489.62],[42.770555,42.294073,488.53],[42.770046,42.293077,475.12],[42.769502,42.292943,471.76],[42.769155,42.292926,468.3],[42.768947,42.292808,466.05],[42.768837,42.292711,464.83],[42.768802,42.292602,463.3],[42.768751,42.292523,461.46],[42.768585,42.292449,458.37],[42.768418,42.292324,453.73],[42.768263,42.292189,448.74],[42.768139,42.292186,447.12],[42.768057,42.292154,444.86],[42.767761,42.292114,440.34],[42.767513,42.292051,435.86],[42.767299,42.292111,436.28],[42.767124,42.292223,437.3],[42.767039,42.292311,438.24],[42.766975,42.292185,434.67],[42.767171,42.292038,433.26],[42.767329,42.291866,429.2],[42.767409,42.29179,428.25],[42.76807,42.291164,420.38],[42.769008,42.290798,418.94],[42.769432,42.290584,416.91],[42.770119,42.290362,415],[42.770661,42.290235,414.68],[42.770993,42.290191,414.9],[42.771712,42.289973,412.36],[42.772082,42.289866,413.18],[42.772356,42.289719,410.02],[42.772608,42.289505,405.15],[42.772924,42.289298,402.25],[42.773262,42.28912,401.22],[42.773879,42.288759,399.16],[42.774346,42.288584,400.33],[42.77463,42.288386,398.1],[42.774941,42.288128,393.91],[42.775253,42.287961,391.28],[42.775767,42.287834,392.28],[42.775977,42.287655,388.66],[42.776245,42.28737,382.23],[42.776529,42.287132,377.06],[42.77669,42.286961,373.56],[42.77676,42.286711,369.25],[42.776637,42.286493,368.84],[42.776384,42.286393,368.12],[42.776063,42.286237,364.99],[42.775857,42.285801,365.22],[42.775824,42.285692,365.49],[42.775831,42.285473,366.16],[42.775797,42.285354,365.56],[42.775717,42.285264,364.72],[42.775625,42.285194,364.08],[42.77546,42.285145,363.76],[42.775104,42.284949,362.33],[42.774893,42.284732,358.69],[42.774839,42.284302,347.97],[42.774756,42.284014,340.83],[42.774687,42.283683,333.09],[42.774665,42.283439,327.46],[42.774467,42.282992,319.15],[42.774501,42.282826,315.81],[42.774453,42.282574,311.24],[42.774298,42.282113,303.68],[42.774078,42.28173,297.38],[42.773879,42.281583,293.92],[42.773764,42.281446,291.53],[42.773705,42.28121,288.13],[42.773595,42.281087,286.97],[42.773992,42.280308,285.87],[42.774346,42.279613,291.17],[42.774389,42.279529,292],[42.77394,42.279419,292.07],[42.773471,42.279222,293],[42.773333,42.279129,292.55],[42.773162,42.278991,291.91],[42.773094,42.278893,290.4],[42.772291,42.278569,286.3],[42.772029,42.278579,286.46],[42.771613,42.278545,285.93],[42.770881,42.278511,283.26],[42.770003,42.278746,279.84],[42.769593,42.278767,278.31],[42.769244,42.278734,276.29],[42.769062,42.278695,275.89],[42.768821,42.278688,274.73],[42.768568,42.278635,273.34],[42.76853,42.278627,273.13],[42.768039,42.278754,269.68],[42.767593,42.278858,267.58],[42.767316,42.278988,266.56],[42.766962,42.279053,265.1],[42.766881,42.279184,263.56],[42.766838,42.279238,263.3],[42.766455,42.279293,261.07],[42.765682,42.279432,260.09],[42.765248,42.279524,258.73],[42.764835,42.279657,258.76],[42.764658,42.279688,258.05],[42.764491,42.279649,258.36],[42.764151,42.279623,258.43],[42.76392,42.279627,257.4],[42.763697,42.2797,254.1],[42.763545,42.279639,253.66],[42.763421,42.279635,252.6],[42.76293,42.279786,244.14],[42.76266,42.279901,239.01],[42.76245,42.279916,234.62],[42.76215,42.279881,229.22],[42.762094,42.279895,228.12],[42.762024,42.279944,226.03],[42.761935,42.279978,224.06],[42.761828,42.279968,222.12],[42.761807,42.279914,222.95],[42.761595,42.27993,216.81],[42.761514,42.280143,207.17],[42.761533,42.280248,204.6],[42.761495,42.280333,199.8],[42.761428,42.280234,200.74],[42.761313,42.28017,198.49],[42.761316,42.280315,192.95],[42.761115,42.280294,185.91],[42.760844,42.280172,182.71],[42.760396,42.28,180.19],[42.76035,42.27994,183.09],[42.760294,42.279889,186.48],[42.760136,42.279849,188.12],[42.760097,42.279882,184.78],[42.760005,42.279961,176.81],[42.759878,42.280201,166.4],[42.75985,42.280246,167.11],[42.759721,42.280279,168.23],[42.759579,42.280364,170.4],[42.759531,42.280443,171.66],[42.75949,42.280756,181.95],[42.759495,42.280873,187.36],[42.759521,42.280988,194],[42.759473,42.281106,197.37],[42.759362,42.281444,209.49],[42.759246,42.281653,213.14],[42.759095,42.281848,213.05],[42.759025,42.281978,214.56],[42.759077,42.282051,218.93],[42.759072,42.282124,220.81],[42.75897,42.282232,220.95],[42.758754,42.282294,217.79],[42.758609,42.282361,217.86],[42.758549,42.282432,220.42],[42.758461,42.282507,222.53],[42.758557,42.282611,228.61],[42.758673,42.282554,227.33]]}}]}