{"type":"FeatureCollection","features":[{"type":"Feature","properties":{"_gpxType":"trk","name":"Sataplia Kolkhic Forest","gpx_style_line":"ffae00\n        6","gpx_style_color":"ffae00","gpx_style_width":"6","coordinateProperties":{}},"geometry":{"type":"LineString","coordinates":[[42.677399,42.312989,449.2],[42.677631,42.312983,451.3],[42.678175,42.313221,456.23],[42.678867,42.313552,464.96],[42.679372,42.313848,468.8],[42.679742,42.314098,469.5],[42.679911,42.31427,468],[42.67992,42.314342,467.85],[42.679935,42.314459,467.6],[42.679814,42.314853,465.97],[42.679531,42.315456,467.07],[42.679414,42.315702,469.07],[42.679562,42.316045,476.2],[42.679554,42.316117,477.06],[42.679535,42.316276,478.98],[42.67938,42.316619,482.19],[42.679173,42.317029,482.42],[42.678875,42.317515,485.71],[42.678835,42.317775,482.6],[42.678583,42.318132,480.42],[42.678427,42.318352,479.07],[42.678148,42.318788,474.55],[42.67795,42.319211,469.57],[42.677949,42.319458,469],[42.677947,42.319705,470.5],[42.677931,42.319923,473.57],[42.677964,42.319975,474.51],[42.678049,42.320109,476.91],[42.678028,42.320391,481.8],[42.678124,42.320653,484.94],[42.678189,42.320811,485.14],[42.678135,42.321006,485.74],[42.67799,42.321069,488.5],[42.677861,42.321164,490],[42.677727,42.321228,491.76],[42.677717,42.321331,493.44],[42.677934,42.321487,493.62],[42.677988,42.321563,493.14],[42.677848,42.321769,495.52],[42.677757,42.321952,495.72],[42.677465,42.322178,501.64],[42.677333,42.3223,504.03],[42.677465,42.322178,501.64],[42.677757,42.321952,495.72],[42.677848,42.321769,495.52],[42.677988,42.321563,493.14],[42.677934,42.321487,493.62],[42.677717,42.321331,493.44],[42.677727,42.321228,491.76],[42.677861,42.321164,490],[42.67799,42.321069,488.5],[42.678135,42.321006,485.74],[42.678189,42.320811,485.14],[42.678124,42.320653,484.94],[42.678028,42.320391,481.8],[42.678049,42.320109,476.91],[42.677931,42.319923,473.57],[42.677532,42.320032,475.22],[42.677084,42.320395,474.85],[42.676828,42.320547,474.34],[42.676571,42.3207,476.29],[42.676137,42.320843,475.75],[42.675788,42.320958,477.44],[42.675603,42.320891,475.15],[42.674898,42.320912,475],[42.674393,42.320895,476.78],[42.673978,42.32073,475.72],[42.673709,42.320688,478.03],[42.673578,42.320567,478.07],[42.673409,42.320514,478.76],[42.672881,42.32048,483.16],[42.672714,42.320377,482.52],[42.672693,42.320298,481.4],[42.672497,42.320212,481.7],[42.672433,42.320212,481.92],[42.672264,42.32021,482.48],[42.672148,42.320288,483.16],[42.672068,42.320452,484.68],[42.671979,42.320599,485.74],[42.671623,42.320785,484.05],[42.671164,42.321025,481.87],[42.670882,42.321178,482.68],[42.670483,42.321232,482.11],[42.670123,42.321325,481.23],[42.669839,42.321473,477.52],[42.669815,42.321486,477.21],[42.669725,42.321341,475.02],[42.669772,42.321101,474.88],[42.669868,42.320742,473.17],[42.669914,42.320496,471.44],[42.669877,42.320331,469.23],[42.669788,42.320214,467.56],[42.669627,42.320163,465.32],[42.669533,42.31983,463.34],[42.669608,42.319778,463.62],[42.669689,42.319722,463.92],[42.66993,42.31953,463.02],[42.669922,42.319278,460.97],[42.669895,42.319024,460.95],[42.669683,42.318949,460.87],[42.669533,42.318844,460.51],[42.669777,42.318624,463.98],[42.669962,42.318476,465.09],[42.67022,42.318271,466.64],[42.670483,42.318122,466.72],[42.670677,42.317769,469.07],[42.67078,42.317567,470.8],[42.6711,42.317124,475.76],[42.671357,42.317013,476.35],[42.671633,42.316859,478.72],[42.672071,42.316638,478.87],[42.672387,42.316323,480.7],[42.672502,42.316022,483.35],[42.672522,42.315933,483.9],[42.672548,42.315813,484.65],[42.672586,42.315516,483.33],[42.672409,42.314804,478.85],[42.67232,42.314368,477.01],[42.672277,42.313977,473.95],[42.672287,42.313967,473.75],[42.67246,42.313798,470.33],[42.672553,42.313669,468.52],[42.672588,42.313481,466.74],[42.672621,42.313181,465.08],[42.672658,42.31247,461.43],[42.672647,42.312277,460.44],[42.672616,42.312149,459.62],[42.672538,42.312079,459.52],[42.672505,42.311936,459.13]]}}]}