{"type":"FeatureCollection","features":[{"type":"Feature","properties":{"_gpxType":"trk","name":"Sataplia - Kutaisi","coordinateProperties":{}},"geometry":{"type":"LineString","coordinates":[[42.691938,42.285647,273.47],[42.691944,42.28587,276.07],[42.69196,42.286445,270.86],[42.691973,42.286628,270.03],[42.691912,42.28687,270.46],[42.691898,42.28693,270.57],[42.691703,42.287286,270.5],[42.691671,42.287464,271.87],[42.691663,42.287821,275.43],[42.691626,42.288072,278.69],[42.691459,42.288271,279.88],[42.691478,42.288366,281.32],[42.691548,42.288437,282.5],[42.691769,42.288605,284.66],[42.691893,42.288794,284.91],[42.691944,42.288945,284.98],[42.691961,42.28899,285.35],[42.691944,42.288945,284.98],[42.691885,42.289125,285.15],[42.691745,42.289292,285.25],[42.691593,42.289449,285.95],[42.691075,42.289838,289.48],[42.691012,42.289927,291.13],[42.690668,42.290269,297.69],[42.690347,42.290537,303.38],[42.690031,42.290843,309.77],[42.689883,42.291025,312],[42.689736,42.291206,311.52],[42.689504,42.291519,306.83],[42.689186,42.291891,300.47],[42.689169,42.291947,300.26],[42.689176,42.291942,300.33],[42.689054,42.292092,299.52],[42.688749,42.292542,303.21],[42.688474,42.292728,306.96],[42.688152,42.292924,309.72],[42.687682,42.293098,309.51],[42.687233,42.293324,313.04],[42.68693,42.293378,315.43],[42.686455,42.293329,316.6],[42.686318,42.293351,317.29],[42.686104,42.293514,319.57],[42.686025,42.293775,326.75],[42.685918,42.293942,328.37],[42.685717,42.294161,328.01],[42.685667,42.29455,328.94],[42.685581,42.29473,329.91],[42.685438,42.29499,330.83],[42.68537,42.29515,329.47],[42.685368,42.295322,328.43],[42.685284,42.295561,326.97],[42.6852,42.2958,328.8],[42.685116,42.296039,333.6],[42.684881,42.296225,336.27],[42.684866,42.296237,336.44],[42.684757,42.296591,339.08],[42.684724,42.296879,339.53],[42.684752,42.297108,339.38],[42.684893,42.297556,336.62],[42.68496,42.297939,335.04],[42.684909,42.298198,332.88],[42.684813,42.298689,332.22],[42.684807,42.298716,332.19],[42.68485,42.298924,330.87],[42.68488,42.299609,325.48],[42.684815,42.300476,321.59],[42.684743,42.301484,327.25],[42.684592,42.301709,327.11],[42.684452,42.301897,326.5],[42.683887,42.302628,316.76],[42.683846,42.302905,313.35],[42.683713,42.303184,311],[42.683737,42.303239,311.25],[42.683713,42.303184,311],[42.683305,42.303497,308.71],[42.68312,42.303536,307.94],[42.682265,42.303519,303.51],[42.681881,42.303423,300.99],[42.681749,42.303339,299.26],[42.681531,42.303235,296.35],[42.681194,42.303174,293.9],[42.681051,42.303163,292.98],[42.680898,42.30317,292.33],[42.680405,42.302924,288.48],[42.679943,42.302796,286.57],[42.679739,42.302707,284.9],[42.679632,42.30269,284.28],[42.679504,42.302743,283.68],[42.679335,42.302853,283.57],[42.679047,42.303093,283.9],[42.678937,42.303207,284.8],[42.678757,42.303186,284.12],[42.678664,42.303184,284.48],[42.678452,42.303328,285.15],[42.678298,42.303542,285.71],[42.678158,42.303664,286.75],[42.677732,42.303763,289.6],[42.677528,42.303738,291.95],[42.677383,42.303684,293.25],[42.677354,42.303608,294.07],[42.677465,42.303449,295.24],[42.677698,42.303339,293.27],[42.677896,42.303229,292.66],[42.677944,42.303055,293.68],[42.677907,42.303034,294.48],[42.677863,42.302988,295.87],[42.677852,42.302941,296.14],[42.677888,42.3029,295.67],[42.677942,42.302886,294.98],[42.677992,42.302885,294.32],[42.678014,42.302804,294.26],[42.67799,42.302696,294.54],[42.677899,42.302623,295.6],[42.677811,42.302566,296.07],[42.677718,42.302518,296.23],[42.677617,42.302485,296.56],[42.677537,42.302477,296.96],[42.677454,42.302485,297.17],[42.677304,42.302535,298.03],[42.677192,42.302607,299.15],[42.677029,42.302899,302.38],[42.676857,42.30311,303.83],[42.676386,42.303241,305.57],[42.676236,42.303296,306.7],[42.676041,42.303439,310.43],[42.675826,42.303574,315.82],[42.675775,42.303755,318.7],[42.675747,42.30394,320.24],[42.675608,42.304157,323.43],[42.675411,42.304253,327.05],[42.675344,42.304266,328.53],[42.675295,42.304249,329.76],[42.675219,42.304162,332.21],[42.675167,42.303919,334.41],[42.675038,42.303706,337.06],[42.674931,42.303627,337.5],[42.674766,42.303551,339.05],[42.674526,42.30352,341.97],[42.67431,42.303524,344.76],[42.674062,42.303547,348.68],[42.673722,42.303535,353.15],[42.673513,42.303518,355.82],[42.673137,42.303433,358.76],[42.672778,42.303304,363.71],[42.672227,42.303081,370.13],[42.672042,42.30303,371.76],[42.671701,42.303048,373.93],[42.671576,42.303148,374.15],[42.671484,42.303257,374.09],[42.671259,42.303447,373.87],[42.670991,42.303634,373.2],[42.670744,42.303855,373.45],[42.670667,42.303901,373.69],[42.670613,42.303933,373.85],[42.670346,42.304036,373.92],[42.670201,42.304107,374.18],[42.670059,42.304201,374.61],[42.669954,42.304504,376.01],[42.669986,42.304738,376.39],[42.669967,42.30499,374.43],[42.669819,42.305263,371.46],[42.669912,42.305412,371.3],[42.669929,42.305628,369.15],[42.670071,42.305908,368.69],[42.670132,42.306156,370.07],[42.670106,42.306535,376.7],[42.670198,42.306711,381.69],[42.670287,42.306781,384.51],[42.670453,42.30704,392.6],[42.670595,42.307112,395.83],[42.670738,42.307165,398.05],[42.670839,42.307313,401.39],[42.670764,42.307674,402.37],[42.670652,42.308671,402.2],[42.670664,42.308783,402.41],[42.670777,42.308975,403.28],[42.670943,42.309058,404.72],[42.671082,42.309235,405.13],[42.671075,42.309214,405.05],[42.67108,42.309152,405.58],[42.671067,42.309093,405.98]]}}]}